{"type":"FeatureCollection","features":[{"id":"8101","type":"Feature","properties":{"nama":"KABUPATEN MALUKU TENGAH"},"geometry":{"type":"MultiPolygon","coordinates":[[[[128.773,-3.639],[128.771,-3.648],[128.759,-3.652],[128.762,-3.69],[128.786,-3.696],[128.81,-3.68],[128.806,-3.646],[128.793,-3.642],[128.784,-3.651],[128.773,-3.639]]],[[[128.608,-3.629],[128.603,-3.634],[128.612,-3.658],[128.614,-3.654],[128.608,-3.629]]],[[[127.917,-3.716],[127.943,-3.775],[127.999,-3.781],[128.017,-3.768],[128.039,-3.733],[128.068,-3.72],[128.084,-3.723],[128.077,-3.706],[128.044,-3.694],[128.032,-3.679],[128.029,-3.666],[128.045,-3.644],[128.062,-3.648],[128.095,-3.631],[128.162,-3.615],[128.189,-3.628],[128.195,-3.62],[128.191,-3.607],[128.239,-3.573],[128.27,-3.6],[128.267,-3.61],[128.269,-3.617],[128.302,-3.624],[128.309,-3.632],[128.352,-3.635],[128.357,-3.603],[128.328,-3.587],[128.322,-3.569],[128.353,-3.528],[128.345,-3.506],[128.329,-3.502],[128.317,-3.508],[128.289,-3.49],[128.257,-3.495],[128.215,-3.523],[128.21,-3.539],[128.197,-3.545],[128.18,-3.567],[128.18,-3.581],[128.17,-3.587],[128.138,-3.591],[128.133,-3.584],[128.095,-3.587],[128.085,-3.581],[128.078,-3.59],[128.026,-3.592],[127.992,-3.63],[127.967,-3.64],[127.946,-3.671],[127.921,-3.681],[127.925,-3.707],[127.917,-3.716]]],[[[128.423,-3.568],[128.411,-3.586],[128.417,-3.613],[128.399,-3.628],[128.404,-3.635],[128.441,-3.631],[128.464,-3.614],[128.498,-3.624],[128.51,-3.606],[128.523,-3.617],[128.54,-3.615],[128.546,-3.601],[128.563,-3.601],[128.576,-3.585],[128.55,-3.538],[128.533,-3.539],[128.5,-3.513],[128.479,-3.519],[128.447,-3.51],[128.446,-3.518],[128.423,-3.523],[128.413,-3.537],[128.423,-3.568]]],[[[128.683,-3.544],[128.639,-3.531],[128.635,-3.519],[128.627,-3.523],[128.63,-3.518],[128.604,-3.497],[128.583,-3.494],[128.566,-3.498],[128.555,-3.525],[128.573,-3.547],[128.595,-3.55],[128.616,-3.584],[128.618,-3.585],[128.625,-3.583],[128.63,-3.584],[128.619,-3.593],[128.607,-3.588],[128.609,-3.598],[128.625,-3.602],[128.645,-3.631],[128.664,-3.61],[128.666,-3.59],[128.651,-3.583],[128.654,-3.573],[128.699,-3.588],[128.73,-3.622],[128.739,-3.601],[128.727,-3.509],[128.716,-3.498],[128.694,-3.494],[128.683,-3.544]]],[[[127.926,-3.476],[127.897,-3.5],[127.92,-3.543],[127.921,-3.568],[127.936,-3.564],[127.936,-3.544],[127.96,-3.528],[127.948,-3.511],[127.947,-3.47],[127.933,-3.461],[127.926,-3.476]]],[[[129.159,-6.955],[129.123,-6.967],[129.135,-6.989],[129.146,-6.991],[129.162,-6.977],[129.159,-6.955]]],[[[129.531,-6.743],[129.537,-6.724],[129.532,-6.712],[129.512,-6.719],[129.501,-6.714],[129.489,-6.728],[129.486,-6.753],[129.496,-6.76],[129.492,-6.748],[129.497,-6.745],[129.496,-6.754],[129.511,-6.762],[129.531,-6.743]]],[[[128.756,-2.85],[128.75,-2.907],[128.763,-2.939],[128.755,-2.961],[128.782,-2.985],[128.812,-2.998],[128.783,-3.01],[128.785,-3.022],[128.771,-3.053],[128.775,-3.067],[128.813,-3.064],[128.818,-3.072],[128.803,-3.087],[128.811,-3.098],[128.805,-3.098],[128.807,-3.119],[128.799,-3.124],[128.793,-3.17],[128.812,-3.186],[128.836,-3.241],[128.845,-3.239],[128.858,-3.212],[128.882,-3.204],[128.931,-3.209],[128.967,-3.227],[128.967,-3.291],[128.94,-3.307],[128.927,-3.324],[128.928,-3.338],[128.91,-3.328],[128.936,-3.357],[128.978,-3.361],[129.033,-3.348],[129.06,-3.351],[129.084,-3.341],[129.12,-3.352],[129.132,-3.365],[129.146,-3.361],[129.165,-3.369],[129.189,-3.389],[129.252,-3.408],[129.408,-3.417],[129.476,-3.447],[129.481,-3.456],[129.538,-3.47],[129.552,-3.466],[129.565,-3.449],[129.567,-3.421],[129.55,-3.381],[129.539,-3.376],[129.506,-3.329],[129.497,-3.328],[129.52,-3.299],[129.546,-3.308],[129.572,-3.304],[129.607,-3.316],[129.632,-3.311],[129.672,-3.323],[129.732,-3.315],[129.761,-3.332],[129.809,-3.321],[129.822,-3.331],[129.855,-3.336],[129.853,-3.323],[129.881,-3.292],[129.883,-3.27],[129.9,-3.259],[129.902,-3.233],[129.892,-3.216],[129.907,-3.196],[129.903,-3.16],[130.146,-3.219],[130.11,-3.173],[130.107,-3.146],[130.117,-3.136],[130.118,-3.121],[130.101,-3.079],[130.105,-3.051],[130.114,-3.046],[130.109,-3.042],[130.134,-3.016],[130.131,-3.0],[130.098,-2.994],[130.072,-3.005],[130.031,-3.003],[130.011,-2.978],[130.0,-2.985],[129.976,-2.977],[129.911,-2.944],[129.904,-2.915],[129.881,-2.912],[129.881,-2.897],[129.857,-2.897],[129.829,-2.915],[129.813,-2.914],[129.795,-2.895],[129.788,-2.865],[129.763,-2.863],[129.707,-2.834],[129.68,-2.834],[129.669,-2.825],[129.636,-2.827],[129.62,-2.803],[129.591,-2.812],[129.557,-2.804],[129.542,-2.796],[129.543,-2.785],[129.53,-2.773],[129.524,-2.776],[129.524,-2.788],[129.525,-2.788],[129.525,-2.788],[129.525,-2.788],[129.525,-2.788],[129.525,-2.788],[129.525,-2.788],[129.526,-2.788],[129.526,-2.788],[129.526,-2.788],[129.527,-2.788],[129.53,-2.789],[129.52,-2.799],[129.512,-2.787],[129.498,-2.795],[129.473,-2.784],[129.377,-2.789],[129.364,-2.803],[129.374,-2.819],[129.35,-2.855],[129.223,-2.922],[129.209,-2.944],[129.22,-2.952],[129.219,-2.955],[129.203,-2.945],[129.204,-2.929],[129.195,-2.934],[129.185,-2.922],[129.179,-2.939],[129.196,-2.961],[129.157,-2.948],[129.132,-2.969],[129.084,-2.94],[129.076,-2.908],[129.064,-2.906],[129.06,-2.889],[129.064,-2.897],[129.078,-2.854],[129.067,-2.811],[129.052,-2.795],[129.032,-2.796],[128.985,-2.83],[128.921,-2.852],[128.801,-2.867],[128.756,-2.85]]],[[[129.071,-2.906],[129.082,-2.895],[129.071,-2.89],[129.071,-2.906]]],[[[128.978,-2.747],[128.991,-2.74],[128.997,-2.728],[128.98,-2.731],[128.978,-2.747]]],[[[130.032,-6.313],[130.02,-6.301],[129.998,-6.304],[130.017,-6.323],[130.03,-6.322],[130.032,-6.313]]],[[[130.036,-4.579],[130.035,-4.604],[130.047,-4.608],[130.048,-4.583],[130.036,-4.579]]],[[[129.667,-4.562],[129.686,-4.563],[129.695,-4.553],[129.694,-4.541],[129.667,-4.562]]],[[[129.867,-4.564],[129.883,-4.552],[129.886,-4.562],[129.9,-4.557],[129.904,-4.565],[129.934,-4.573],[129.958,-4.548],[129.952,-4.541],[129.956,-4.531],[129.945,-4.523],[129.947,-4.508],[129.921,-4.546],[129.861,-4.548],[129.867,-4.564]]],[[[129.783,-4.529],[129.78,-4.519],[129.764,-4.517],[129.773,-4.538],[129.783,-4.529]]],[[[129.89,-4.536],[129.893,-4.512],[129.879,-4.505],[129.87,-4.511],[129.868,-4.53],[129.89,-4.536]]],[[[129.895,-4.527],[129.905,-4.531],[129.91,-4.522],[129.907,-4.507],[129.893,-4.502],[129.901,-4.517],[129.895,-4.527]]]]}},{"id":"8102","type":"Feature","properties":{"nama":"KABUPATEN MALUKU TENGGARA"},"geometry":{"type":"MultiPolygon","coordinates":[[[[132.44,-6.038],[132.471,-6.016],[132.468,-5.99],[132.459,-6.003],[132.462,-6.015],[132.454,-6.02],[132.442,-6.008],[132.428,-6.009],[132.44,-6.038]]],[[[132.54,-5.909],[132.532,-5.875],[132.525,-5.877],[132.517,-5.895],[132.525,-5.921],[132.54,-5.909]]],[[[132.559,-5.861],[132.549,-5.857],[132.542,-5.841],[132.524,-5.84],[132.54,-5.868],[132.553,-5.871],[132.559,-5.861]]],[[[132.594,-5.859],[132.611,-5.856],[132.599,-5.833],[132.589,-5.847],[132.594,-5.859]]],[[[132.568,-5.817],[132.588,-5.839],[132.597,-5.831],[132.568,-5.817]]],[[[132.623,-5.814],[132.624,-5.807],[132.62,-5.793],[132.615,-5.803],[132.623,-5.814]]],[[[132.611,-5.594],[132.611,-5.605],[132.641,-5.639],[132.635,-5.636],[132.635,-5.676],[132.645,-5.678],[132.65,-5.668],[132.658,-5.675],[132.649,-5.712],[132.674,-5.722],[132.68,-5.739],[132.699,-5.754],[132.705,-5.81],[132.714,-5.827],[132.7,-5.812],[132.689,-5.753],[132.675,-5.748],[132.67,-5.784],[132.689,-5.808],[132.69,-5.835],[132.669,-5.854],[132.663,-5.906],[132.694,-5.91],[132.69,-5.933],[132.694,-5.952],[132.714,-5.929],[132.711,-5.895],[132.716,-5.899],[132.718,-5.893],[132.731,-5.898],[132.723,-5.952],[132.78,-5.943],[132.797,-5.869],[132.814,-5.85],[132.811,-5.809],[132.805,-5.79],[132.788,-5.776],[132.774,-5.787],[132.772,-5.814],[132.768,-5.783],[132.769,-5.775],[132.774,-5.784],[132.78,-5.781],[132.772,-5.768],[132.773,-5.74],[132.779,-5.727],[132.772,-5.717],[132.76,-5.719],[132.766,-5.745],[132.763,-5.747],[132.738,-5.692],[132.744,-5.656],[132.742,-5.643],[132.737,-5.648],[132.723,-5.645],[132.721,-5.661],[132.691,-5.658],[132.7,-5.628],[132.706,-5.628],[132.7,-5.651],[132.712,-5.652],[132.71,-5.59],[132.684,-5.605],[132.676,-5.63],[132.627,-5.613],[132.611,-5.594]]],[[[132.759,-5.7],[132.754,-5.705],[132.763,-5.716],[132.766,-5.706],[132.759,-5.7]]],[[[132.762,-5.673],[132.749,-5.666],[132.758,-5.68],[132.762,-5.673]]],[[[132.737,-5.646],[132.725,-5.622],[132.714,-5.623],[132.718,-5.633],[132.737,-5.646]]],[[[132.718,-5.594],[132.734,-5.596],[132.731,-5.574],[132.713,-5.586],[132.718,-5.594]]],[[[132.787,-5.776],[132.791,-5.745],[132.781,-5.731],[132.776,-5.76],[132.78,-5.752],[132.78,-5.772],[132.787,-5.776]]],[[[132.803,-5.769],[132.802,-5.73],[132.796,-5.723],[132.785,-5.725],[132.799,-5.753],[132.794,-5.762],[132.803,-5.769]]],[[[132.843,-6.005],[132.873,-5.958],[132.894,-5.954],[132.916,-5.902],[132.926,-5.901],[132.933,-5.883],[132.951,-5.877],[132.961,-5.856],[132.943,-5.822],[132.962,-5.744],[133.042,-5.644],[133.085,-5.625],[133.12,-5.566],[133.164,-5.367],[133.18,-5.341],[133.188,-5.345],[133.192,-5.327],[133.179,-5.296],[133.161,-5.283],[133.156,-5.295],[133.154,-5.272],[133.131,-5.294],[133.123,-5.279],[133.119,-5.281],[133.093,-5.366],[133.074,-5.387],[133.074,-5.416],[133.054,-5.453],[133.044,-5.522],[133.013,-5.591],[133.019,-5.611],[133.009,-5.616],[133.003,-5.651],[132.979,-5.658],[132.977,-5.64],[132.953,-5.669],[132.957,-5.674],[132.942,-5.685],[132.943,-5.729],[132.929,-5.762],[132.938,-5.769],[132.937,-5.779],[132.913,-5.794],[132.908,-5.821],[132.882,-5.842],[132.892,-5.858],[132.877,-5.856],[132.881,-5.863],[132.872,-5.88],[132.885,-5.886],[132.888,-5.901],[132.886,-5.907],[132.868,-5.904],[132.869,-5.938],[132.843,-6.005]]]]}},{"id":"8103","type":"Feature","properties":{"nama":"KABUPATEN KEPULAUAN TANIMBAR"},"geometry":{"type":"MultiPolygon","coordinates":[[[[130.714,-8.251],[130.708,-8.251],[130.697,-8.262],[130.705,-8.264],[130.714,-8.251]]],[[[130.892,-8.293],[130.898,-8.284],[130.893,-8.265],[130.882,-8.262],[130.887,-8.246],[130.924,-8.23],[130.964,-8.23],[130.984,-8.238],[131.039,-8.201],[131.052,-8.207],[131.082,-8.185],[131.145,-8.157],[131.166,-8.134],[131.166,-8.118],[131.127,-8.116],[131.106,-8.14],[131.069,-8.163],[131.065,-8.151],[131.087,-8.129],[131.082,-8.112],[131.042,-8.093],[131.032,-8.076],[131.017,-8.079],[130.986,-8.116],[130.987,-8.129],[131.006,-8.131],[130.999,-8.144],[130.985,-8.149],[130.976,-8.138],[130.945,-8.141],[130.937,-8.126],[130.923,-8.134],[130.914,-8.15],[130.917,-8.173],[130.93,-8.174],[130.919,-8.177],[130.93,-8.199],[130.922,-8.213],[130.909,-8.22],[130.873,-8.22],[130.829,-8.257],[130.82,-8.252],[130.813,-8.271],[130.799,-8.282],[130.799,-8.297],[130.756,-8.34],[130.816,-8.342],[130.826,-8.321],[130.892,-8.293]]],[[[131.106,-8.038],[131.095,-8.032],[131.096,-8.017],[131.081,-8.012],[131.084,-8.044],[131.1,-8.052],[131.106,-8.038]]],[[[130.949,-7.774],[130.956,-7.74],[130.956,-7.739],[130.956,-7.738],[130.956,-7.738],[130.956,-7.738],[130.956,-7.738],[130.956,-7.738],[130.955,-7.738],[130.955,-7.738],[130.954,-7.738],[130.954,-7.738],[130.953,-7.738],[130.953,-7.738],[130.953,-7.738],[130.952,-7.738],[130.945,-7.746],[130.95,-7.767],[130.942,-7.777],[130.949,-7.774]]],[[[131.078,-7.767],[131.088,-7.754],[131.078,-7.744],[131.092,-7.751],[131.097,-7.741],[131.092,-7.723],[131.064,-7.754],[131.078,-7.767]]],[[[131.034,-7.689],[131.062,-7.682],[131.055,-7.686],[131.055,-7.706],[131.081,-7.707],[131.102,-7.696],[131.114,-7.678],[131.112,-7.668],[131.117,-7.65],[131.119,-7.649],[131.12,-7.644],[131.124,-7.641],[131.124,-7.64],[131.124,-7.64],[131.124,-7.64],[131.124,-7.64],[131.124,-7.639],[131.096,-7.635],[131.096,-7.644],[131.065,-7.646],[131.045,-7.676],[131.044,-7.656],[131.011,-7.675],[130.97,-7.681],[130.962,-7.69],[130.967,-7.741],[130.997,-7.739],[131.002,-7.727],[131.041,-7.724],[131.026,-7.706],[131.036,-7.698],[131.034,-7.689]]],[[[130.984,-7.549],[130.998,-7.529],[130.99,-7.522],[130.97,-7.519],[130.989,-7.516],[130.978,-7.508],[130.964,-7.51],[130.955,-7.525],[130.94,-7.526],[130.938,-7.532],[130.936,-7.534],[130.936,-7.523],[130.877,-7.516],[130.877,-7.507],[130.851,-7.495],[130.855,-7.501],[130.838,-7.502],[130.843,-7.543],[130.833,-7.555],[130.894,-7.578],[130.928,-7.57],[130.945,-7.545],[130.965,-7.564],[130.98,-7.564],[130.98,-7.557],[130.954,-7.543],[130.964,-7.536],[130.984,-7.549]]],[[[130.825,-7.473],[130.81,-7.485],[130.837,-7.498],[130.823,-7.481],[130.835,-7.485],[130.825,-7.473]]],[[[130.981,-7.436],[130.971,-7.493],[131.001,-7.504],[131.012,-7.497],[131.033,-7.5],[131.06,-7.484],[131.062,-7.5],[131.048,-7.5],[131.032,-7.513],[131.06,-7.524],[131.087,-7.493],[131.084,-7.481],[131.093,-7.49],[131.106,-7.475],[131.118,-7.477],[131.122,-7.465],[131.133,-7.468],[131.137,-7.447],[131.17,-7.423],[131.162,-7.405],[131.089,-7.422],[131.013,-7.422],[130.981,-7.436]]],[[[131.216,-8.051],[131.203,-8.053],[131.191,-8.08],[131.211,-8.072],[131.216,-8.051]]],[[[131.157,-7.538],[131.144,-7.517],[131.129,-7.522],[131.134,-7.542],[131.154,-7.545],[131.157,-7.538]]],[[[131.281,-8.062],[131.291,-8.035],[131.286,-8.042],[131.288,-8.034],[131.281,-8.033],[131.268,-8.06],[131.281,-8.062]]],[[[131.102,-7.994],[131.134,-8.002],[131.151,-7.994],[131.185,-7.994],[131.232,-8.007],[131.272,-7.961],[131.276,-7.934],[131.295,-7.923],[131.292,-7.939],[131.305,-7.943],[131.304,-7.957],[131.297,-7.957],[131.306,-7.958],[131.306,-7.957],[131.308,-7.959],[131.296,-7.982],[131.291,-7.98],[131.286,-8.001],[131.292,-8.031],[131.324,-7.995],[131.342,-7.992],[131.332,-7.955],[131.343,-7.952],[131.356,-7.933],[131.332,-7.941],[131.327,-7.934],[131.344,-7.907],[131.363,-7.912],[131.381,-7.896],[131.361,-7.889],[131.363,-7.871],[131.389,-7.844],[131.416,-7.839],[131.432,-7.814],[131.462,-7.809],[131.451,-7.779],[131.46,-7.772],[131.479,-7.784],[131.484,-7.752],[131.475,-7.742],[131.484,-7.731],[131.553,-7.724],[131.571,-7.686],[131.59,-7.669],[131.585,-7.659],[131.599,-7.654],[131.6,-7.644],[131.61,-7.652],[131.622,-7.65],[131.632,-7.623],[131.629,-7.608],[131.649,-7.571],[131.646,-7.559],[131.659,-7.55],[131.655,-7.54],[131.667,-7.513],[131.649,-7.505],[131.672,-7.497],[131.667,-7.486],[131.676,-7.462],[131.668,-7.451],[131.698,-7.439],[131.706,-7.428],[131.7,-7.418],[131.672,-7.437],[131.669,-7.42],[131.657,-7.431],[131.663,-7.405],[131.646,-7.404],[131.648,-7.395],[131.676,-7.392],[131.682,-7.379],[131.677,-7.368],[131.658,-7.367],[131.661,-7.355],[131.651,-7.352],[131.658,-7.334],[131.651,-7.314],[131.637,-7.305],[131.639,-7.28],[131.63,-7.264],[131.635,-7.252],[131.65,-7.25],[131.652,-7.231],[131.674,-7.225],[131.674,-7.234],[131.701,-7.234],[131.743,-7.222],[131.745,-7.208],[131.718,-7.189],[131.719,-7.165],[131.691,-7.163],[131.71,-7.153],[131.71,-7.144],[131.676,-7.157],[131.68,-7.174],[131.643,-7.179],[131.64,-7.169],[131.66,-7.143],[131.655,-7.118],[131.606,-7.125],[131.603,-7.14],[131.599,-7.126],[131.585,-7.125],[131.572,-7.134],[131.574,-7.147],[131.549,-7.15],[131.538,-7.141],[131.52,-7.16],[131.518,-7.181],[131.529,-7.191],[131.52,-7.199],[131.53,-7.202],[131.532,-7.222],[131.543,-7.228],[131.508,-7.24],[131.492,-7.231],[131.474,-7.241],[131.472,-7.265],[131.459,-7.269],[131.458,-7.287],[131.446,-7.28],[131.44,-7.312],[131.433,-7.316],[131.453,-7.346],[131.433,-7.346],[131.429,-7.335],[131.422,-7.343],[131.404,-7.335],[131.385,-7.345],[131.38,-7.354],[131.394,-7.359],[131.38,-7.363],[131.38,-7.374],[131.366,-7.369],[131.383,-7.394],[131.372,-7.404],[131.355,-7.396],[131.358,-7.404],[131.348,-7.42],[131.353,-7.432],[131.342,-7.447],[131.329,-7.443],[131.327,-7.42],[131.317,-7.42],[131.305,-7.441],[131.297,-7.433],[131.278,-7.445],[131.279,-7.456],[131.26,-7.454],[131.25,-7.471],[131.238,-7.474],[131.227,-7.493],[131.219,-7.54],[131.184,-7.59],[131.187,-7.6],[131.188,-7.593],[131.203,-7.582],[131.187,-7.602],[131.182,-7.603],[131.173,-7.641],[131.176,-7.652],[131.191,-7.65],[131.193,-7.651],[131.168,-7.655],[131.156,-7.673],[131.175,-7.676],[131.186,-7.705],[131.209,-7.7],[131.237,-7.712],[131.238,-7.725],[131.256,-7.714],[131.258,-7.716],[131.263,-7.702],[131.27,-7.705],[131.262,-7.708],[131.265,-7.723],[131.247,-7.721],[131.247,-7.734],[131.256,-7.728],[131.251,-7.736],[131.238,-7.731],[131.231,-7.719],[131.207,-7.727],[131.171,-7.723],[131.128,-7.681],[131.106,-7.705],[131.106,-7.743],[131.113,-7.739],[131.112,-7.723],[131.126,-7.734],[131.115,-7.758],[131.137,-7.746],[131.136,-7.739],[131.142,-7.735],[131.147,-7.741],[131.139,-7.741],[131.149,-7.75],[131.143,-7.76],[131.134,-7.758],[131.131,-7.77],[131.148,-7.767],[131.156,-7.772],[131.14,-7.77],[131.112,-7.783],[131.137,-7.783],[131.115,-7.795],[131.126,-7.799],[131.131,-7.793],[131.145,-7.804],[131.141,-7.834],[131.121,-7.836],[131.107,-7.823],[131.101,-7.837],[131.094,-7.834],[131.082,-7.848],[131.081,-7.879],[131.115,-7.897],[131.121,-7.911],[131.102,-7.966],[131.108,-7.98],[131.102,-7.994]]],[[[131.327,-7.391],[131.319,-7.391],[131.316,-7.408],[131.328,-7.416],[131.327,-7.391]]],[[[131.235,-7.373],[131.274,-7.377],[131.26,-7.359],[131.279,-7.342],[131.283,-7.347],[131.302,-7.339],[131.289,-7.323],[131.28,-7.321],[131.287,-7.335],[131.277,-7.332],[131.26,-7.314],[131.26,-7.304],[131.239,-7.312],[131.245,-7.32],[131.243,-7.333],[131.237,-7.333],[131.241,-7.339],[131.226,-7.332],[131.226,-7.352],[131.208,-7.355],[131.235,-7.373]]],[[[131.46,-7.234],[131.457,-7.244],[131.472,-7.246],[131.472,-7.234],[131.46,-7.234]]],[[[131.378,-7.241],[131.397,-7.224],[131.4,-7.239],[131.405,-7.237],[131.391,-7.201],[131.385,-7.202],[131.381,-7.226],[131.365,-7.232],[131.378,-7.241]]],[[[131.491,-7.205],[131.487,-7.163],[131.471,-7.172],[131.47,-7.186],[131.452,-7.201],[131.481,-7.212],[131.491,-7.205]]],[[[131.436,-7.142],[131.447,-7.139],[131.455,-7.122],[131.454,-7.105],[131.444,-7.097],[131.432,-7.124],[131.436,-7.142]]],[[[131.446,-7.093],[131.445,-7.08],[131.43,-7.069],[131.433,-7.091],[131.446,-7.093]]],[[[131.514,-6.88],[131.501,-6.868],[131.473,-6.873],[131.458,-6.917],[131.485,-6.922],[131.514,-6.88]]],[[[131.957,-7.166],[131.935,-7.121],[131.917,-7.103],[131.911,-7.111],[131.753,-7.116],[131.719,-7.135],[131.714,-7.152],[131.727,-7.177],[131.756,-7.169],[131.751,-7.177],[131.759,-7.182],[131.775,-7.165],[131.809,-7.175],[131.815,-7.161],[131.86,-7.164],[131.898,-7.179],[131.909,-7.23],[131.929,-7.231],[131.936,-7.246],[131.95,-7.247],[131.949,-7.254],[131.975,-7.243],[131.987,-7.214],[131.973,-7.206],[131.974,-7.176],[131.957,-7.166]]],[[[131.909,-7.08],[131.927,-7.081],[131.961,-7.055],[131.981,-7.009],[132.008,-6.987],[131.972,-7.0],[131.947,-7.032],[131.915,-7.051],[131.906,-7.065],[131.909,-7.08]]],[[[131.508,-6.83],[131.528,-6.831],[131.537,-6.81],[131.514,-6.819],[131.508,-6.83]]],[[[131.517,-6.757],[131.521,-6.798],[131.528,-6.804],[131.558,-6.783],[131.562,-6.791],[131.574,-6.785],[131.592,-6.757],[131.588,-6.754],[131.585,-6.754],[131.584,-6.753],[131.584,-6.753],[131.584,-6.753],[131.584,-6.753],[131.583,-6.753],[131.583,-6.753],[131.583,-6.753],[131.583,-6.753],[131.583,-6.753],[131.583,-6.753],[131.583,-6.753],[131.583,-6.753],[131.583,-6.753],[131.582,-6.753],[131.564,-6.763],[131.556,-6.745],[131.563,-6.724],[131.577,-6.711],[131.594,-6.73],[131.601,-6.729],[131.597,-6.724],[131.622,-6.704],[131.625,-6.679],[131.576,-6.668],[131.559,-6.687],[131.564,-6.705],[131.537,-6.726],[131.517,-6.757]]]]}},{"id":"8104","type":"Feature","properties":{"nama":"KABUPATEN BURU"},"geometry":{"type":"Polygon","coordinates":[[[126.127,-3.152],[126.102,-3.178],[126.102,-3.247],[126.123,-3.266],[126.153,-3.262],[126.197,-3.278],[126.201,-3.287],[126.194,-3.301],[126.204,-3.327],[126.249,-3.368],[126.249,-3.386],[126.266,-3.394],[126.321,-3.394],[126.346,-3.413],[126.392,-3.414],[126.523,-3.459],[126.552,-3.448],[126.594,-3.458],[126.604,-3.489],[126.671,-3.526],[126.707,-3.573],[126.711,-3.591],[126.74,-3.608],[126.746,-3.61],[126.751,-3.586],[126.758,-3.585],[126.764,-3.593],[126.769,-3.592],[126.768,-3.576],[126.773,-3.581],[126.781,-3.572],[126.793,-3.574],[126.803,-3.584],[126.812,-3.58],[126.816,-3.59],[126.823,-3.577],[126.829,-3.591],[126.837,-3.592],[126.836,-3.602],[126.876,-3.635],[126.88,-3.651],[126.931,-3.634],[126.957,-3.64],[126.975,-3.602],[127.002,-3.598],[127.037,-3.579],[127.06,-3.541],[127.102,-3.513],[127.096,-3.499],[127.112,-3.482],[127.157,-3.519],[127.202,-3.592],[127.222,-3.609],[127.243,-3.614],[127.251,-3.594],[127.245,-3.572],[127.252,-3.531],[127.248,-3.451],[127.267,-3.385],[127.258,-3.373],[127.22,-3.357],[127.181,-3.356],[127.167,-3.337],[127.142,-3.35],[127.135,-3.38],[127.122,-3.384],[127.093,-3.372],[127.076,-3.374],[127.068,-3.347],[127.074,-3.326],[127.056,-3.33],[127.054,-3.338],[127.041,-3.331],[127.043,-3.309],[127.031,-3.264],[127.062,-3.266],[127.072,-3.259],[127.092,-3.272],[127.096,-3.284],[127.117,-3.28],[127.122,-3.274],[127.111,-3.256],[127.111,-3.233],[127.058,-3.182],[127.028,-3.172],[127.019,-3.158],[126.986,-3.139],[126.934,-3.144],[126.909,-3.122],[126.889,-3.127],[126.882,-3.107],[126.867,-3.095],[126.791,-3.059],[126.711,-3.056],[126.698,-3.067],[126.681,-3.062],[126.678,-3.07],[126.622,-3.07],[126.601,-3.063],[126.57,-3.072],[126.516,-3.071],[126.469,-3.085],[126.405,-3.081],[126.39,-3.094],[126.342,-3.102],[126.3,-3.093],[126.262,-3.132],[126.228,-3.138],[126.221,-3.162],[126.229,-3.178],[126.223,-3.184],[126.176,-3.182],[126.127,-3.152]]]}},{"id":"8105","type":"Feature","properties":{"nama":"KABUPATEN SERAM BAGIAN TIMUR"},"geometry":{"type":"MultiPolygon","coordinates":[[[[130.922,-3.897],[130.957,-3.881],[130.948,-3.884],[130.942,-3.874],[130.936,-3.883],[130.931,-3.872],[130.937,-3.867],[130.936,-3.866],[130.919,-3.877],[130.91,-3.898],[130.915,-3.903],[130.919,-3.903],[130.922,-3.906],[130.922,-3.906],[130.923,-3.906],[130.923,-3.906],[130.923,-3.906],[130.924,-3.906],[130.922,-3.897]]],[[[129.856,-3.321],[129.857,-3.337],[129.929,-3.338],[129.958,-3.356],[129.971,-3.381],[129.97,-3.426],[129.99,-3.442],[130.017,-3.483],[130.099,-3.501],[130.133,-3.533],[130.297,-3.586],[130.324,-3.601],[130.328,-3.615],[130.343,-3.612],[130.352,-3.621],[130.369,-3.618],[130.413,-3.63],[130.447,-3.655],[130.482,-3.706],[130.53,-3.709],[130.568,-3.721],[130.574,-3.741],[130.611,-3.766],[130.61,-3.786],[130.62,-3.793],[130.632,-3.787],[130.654,-3.808],[130.658,-3.802],[130.687,-3.805],[130.7,-3.821],[130.743,-3.824],[130.752,-3.837],[130.768,-3.828],[130.777,-3.849],[130.793,-3.853],[130.797,-3.851],[130.81,-3.853],[130.798,-3.853],[130.796,-3.863],[130.848,-3.873],[130.849,-3.86],[130.821,-3.834],[130.833,-3.785],[130.822,-3.701],[130.839,-3.648],[130.878,-3.621],[130.882,-3.587],[130.861,-3.549],[130.838,-3.537],[130.822,-3.516],[130.821,-3.502],[130.806,-3.489],[130.811,-3.471],[130.843,-3.467],[130.84,-3.453],[130.824,-3.445],[130.803,-3.406],[130.663,-3.4],[130.644,-3.373],[130.633,-3.337],[130.631,-3.31],[130.64,-3.282],[130.63,-3.26],[130.632,-3.237],[130.615,-3.214],[130.615,-3.19],[130.6,-3.147],[130.577,-3.124],[130.557,-3.118],[130.553,-3.107],[130.494,-3.103],[130.478,-3.07],[130.46,-3.056],[130.459,-3.063],[130.448,-3.063],[130.44,-3.031],[130.423,-3.026],[130.383,-2.987],[130.366,-2.99],[130.353,-2.974],[130.309,-2.972],[130.26,-2.981],[130.22,-3.006],[130.198,-3.01],[130.18,-3.01],[130.172,-2.99],[130.154,-2.986],[130.126,-2.998],[130.134,-3.016],[130.109,-3.042],[130.114,-3.046],[130.105,-3.051],[130.101,-3.072],[130.118,-3.121],[130.107,-3.162],[130.12,-3.191],[130.14,-3.205],[130.146,-3.219],[129.903,-3.16],[129.907,-3.196],[129.892,-3.216],[129.902,-3.233],[129.9,-3.259],[129.883,-3.27],[129.881,-3.292],[129.856,-3.321]]],[[[130.805,-3.321],[130.776,-3.298],[130.764,-3.316],[130.794,-3.335],[130.805,-3.321]]],[[[131.722,-4.712],[131.731,-4.722],[131.727,-4.755],[131.741,-4.788],[131.758,-4.753],[131.759,-4.729],[131.734,-4.702],[131.728,-4.7],[131.722,-4.712]]],[[[131.701,-4.598],[131.707,-4.612],[131.704,-4.597],[131.691,-4.585],[131.69,-4.596],[131.701,-4.598]]],[[[131.681,-4.54],[131.68,-4.505],[131.662,-4.487],[131.656,-4.468],[131.63,-4.436],[131.609,-4.423],[131.614,-4.441],[131.632,-4.451],[131.625,-4.457],[131.649,-4.499],[131.654,-4.535],[131.681,-4.54]]],[[[131.6,-4.416],[131.607,-4.416],[131.607,-4.406],[131.578,-4.379],[131.6,-4.416]]],[[[131.399,-4.172],[131.403,-4.161],[131.373,-4.125],[131.338,-4.111],[131.295,-4.074],[131.281,-4.07],[131.272,-4.077],[131.3,-4.127],[131.338,-4.131],[131.351,-4.146],[131.372,-4.151],[131.375,-4.171],[131.399,-4.172]]],[[[131.205,-3.981],[131.22,-4.037],[131.243,-4.056],[131.238,-4.032],[131.244,-4.004],[131.227,-3.987],[131.205,-3.981]]],[[[131.408,-3.949],[131.367,-3.974],[131.418,-4.072],[131.435,-4.079],[131.45,-4.069],[131.44,-4.053],[131.447,-4.038],[131.431,-4.012],[131.423,-3.951],[131.408,-3.949]]]]}},{"id":"8106","type":"Feature","properties":{"nama":"KABUPATEN SERAM BAGIAN BARAT"},"geometry":{"type":"MultiPolygon","coordinates":[[[[127.506,-3.33],[127.601,-3.348],[127.616,-3.369],[127.648,-3.37],[127.66,-3.361],[127.637,-3.341],[127.626,-3.308],[127.614,-3.308],[127.577,-3.266],[127.553,-3.263],[127.537,-3.273],[127.524,-3.264],[127.524,-3.284],[127.487,-3.298],[127.506,-3.33]]],[[[127.638,-3.227],[127.676,-3.252],[127.704,-3.26],[127.749,-3.248],[127.789,-3.257],[127.801,-3.221],[127.79,-3.182],[127.799,-3.181],[127.761,-3.151],[127.722,-3.159],[127.684,-3.194],[127.643,-3.218],[127.638,-3.227]]],[[[127.777,-3.155],[127.779,-3.165],[127.799,-3.164],[127.805,-3.172],[127.813,-3.168],[127.811,-3.162],[127.803,-3.158],[127.804,-3.156],[127.816,-3.157],[127.817,-3.165],[127.835,-3.156],[127.777,-3.155]]],[[[128.052,-2.996],[128.052,-3.019],[128.059,-2.995],[128.052,-2.996]]],[[[127.915,-2.95],[127.876,-2.963],[127.868,-3.006],[127.844,-3.017],[127.829,-3.035],[127.898,-3.041],[127.926,-3.033],[127.955,-3.009],[127.97,-2.974],[128.004,-2.94],[127.992,-2.924],[127.951,-2.926],[127.92,-2.912],[127.913,-2.921],[127.938,-2.929],[127.941,-2.941],[127.924,-2.935],[127.915,-2.95]]],[[[127.925,-2.927],[127.899,-2.932],[127.874,-2.959],[127.91,-2.949],[127.925,-2.927]]],[[[128.155,-3.232],[128.172,-3.23],[128.171,-3.216],[128.155,-3.232]]],[[[127.873,-3.157],[127.838,-3.16],[127.871,-3.187],[127.874,-3.236],[127.888,-3.258],[127.888,-3.272],[127.924,-3.303],[127.944,-3.356],[127.942,-3.383],[127.919,-3.415],[127.896,-3.495],[127.926,-3.476],[127.933,-3.461],[127.939,-3.469],[127.947,-3.47],[127.97,-3.436],[127.972,-3.414],[127.991,-3.375],[128.017,-3.381],[128.03,-3.37],[128.031,-3.359],[128.055,-3.341],[128.06,-3.255],[128.083,-3.145],[128.161,-3.067],[128.185,-3.065],[128.2,-3.078],[128.201,-3.104],[128.193,-3.112],[128.202,-3.127],[128.196,-3.141],[128.185,-3.15],[128.171,-3.14],[128.173,-3.164],[128.159,-3.159],[128.165,-3.183],[128.158,-3.188],[128.171,-3.186],[128.16,-3.201],[128.172,-3.207],[128.179,-3.228],[128.185,-3.233],[128.189,-3.221],[128.203,-3.218],[128.192,-3.199],[128.219,-3.217],[128.223,-3.21],[128.236,-3.215],[128.253,-3.197],[128.25,-3.208],[128.269,-3.203],[128.27,-3.215],[128.296,-3.233],[128.3,-3.265],[128.312,-3.273],[128.333,-3.33],[128.395,-3.394],[128.405,-3.429],[128.459,-3.458],[128.521,-3.459],[128.594,-3.426],[128.622,-3.434],[128.675,-3.433],[128.699,-3.412],[128.671,-3.391],[128.672,-3.37],[128.682,-3.357],[128.778,-3.266],[128.844,-3.24],[128.834,-3.24],[128.812,-3.186],[128.793,-3.17],[128.799,-3.124],[128.807,-3.119],[128.805,-3.098],[128.811,-3.098],[128.803,-3.087],[128.818,-3.072],[128.813,-3.064],[128.775,-3.067],[128.771,-3.053],[128.785,-3.022],[128.783,-3.01],[128.812,-2.998],[128.782,-2.985],[128.755,-2.961],[128.763,-2.939],[128.75,-2.907],[128.755,-2.852],[128.7,-2.861],[128.669,-2.84],[128.625,-2.854],[128.562,-2.854],[128.528,-2.836],[128.507,-2.834],[128.474,-2.852],[128.434,-2.847],[128.402,-2.87],[128.383,-2.872],[128.352,-2.86],[128.265,-2.869],[128.256,-2.858],[128.239,-2.854],[128.189,-2.867],[128.163,-2.863],[128.166,-2.882],[128.129,-2.905],[128.132,-2.918],[128.142,-2.921],[128.129,-2.944],[128.112,-2.959],[128.081,-2.961],[128.071,-2.972],[128.083,-2.987],[128.123,-2.971],[128.127,-3.002],[128.096,-3.02],[128.111,-3.016],[128.103,-3.045],[128.118,-3.053],[128.12,-3.061],[128.1,-3.075],[128.091,-3.068],[128.035,-3.078],[128.003,-3.073],[128.006,-3.081],[128.002,-3.084],[127.998,-3.071],[127.977,-3.095],[127.977,-3.105],[127.985,-3.108],[127.961,-3.104],[127.955,-3.114],[127.943,-3.113],[127.945,-3.129],[127.923,-3.145],[127.899,-3.158],[127.88,-3.15],[127.873,-3.157]]]]}},{"id":"8107","type":"Feature","properties":{"nama":"KABUPATEN KEPULAUAN ARU"},"geometry":{"type":"MultiPolygon","coordinates":[[[[134.135,-6.482],[134.116,-6.448],[134.099,-6.489],[134.084,-6.695],[134.052,-6.774],[134.073,-6.831],[134.095,-6.85],[134.118,-6.845],[134.15,-6.867],[134.147,-6.856],[134.15,-6.847],[134.186,-6.849],[134.19,-6.84],[134.181,-6.831],[134.194,-6.836],[134.192,-6.848],[134.181,-6.856],[134.15,-6.85],[134.166,-6.881],[134.166,-6.89],[134.164,-6.891],[134.153,-6.867],[134.151,-6.871],[134.172,-6.907],[134.169,-6.917],[134.192,-6.927],[134.197,-6.942],[134.206,-6.932],[134.203,-6.919],[134.216,-6.907],[134.333,-6.861],[134.361,-6.826],[134.376,-6.82],[134.38,-6.811],[134.364,-6.807],[134.366,-6.782],[134.381,-6.765],[134.402,-6.757],[134.388,-6.732],[134.4,-6.735],[134.447,-6.695],[134.443,-6.682],[134.429,-6.677],[134.432,-6.658],[134.417,-6.667],[134.427,-6.658],[134.425,-6.65],[134.431,-6.648],[134.448,-6.672],[134.464,-6.68],[134.47,-6.663],[134.482,-6.667],[134.494,-6.658],[134.493,-6.647],[134.503,-6.64],[134.497,-6.632],[134.502,-6.617],[134.524,-6.61],[134.53,-6.582],[134.523,-6.574],[134.504,-6.586],[134.49,-6.585],[134.474,-6.566],[134.489,-6.567],[134.497,-6.553],[134.474,-6.549],[134.481,-6.527],[134.497,-6.529],[134.504,-6.519],[134.494,-6.497],[134.479,-6.491],[134.461,-6.434],[134.434,-6.443],[134.433,-6.433],[134.424,-6.43],[134.426,-6.417],[134.414,-6.409],[134.406,-6.398],[134.386,-6.402],[134.382,-6.41],[134.377,-6.402],[134.362,-6.403],[134.363,-6.397],[134.363,-6.396],[134.363,-6.396],[134.363,-6.395],[134.363,-6.394],[134.363,-6.394],[134.363,-6.394],[134.363,-6.394],[134.363,-6.392],[134.363,-6.392],[134.363,-6.391],[134.363,-6.39],[134.353,-6.398],[134.339,-6.399],[134.336,-6.384],[134.314,-6.37],[134.312,-6.356],[134.3,-6.36],[134.295,-6.351],[134.296,-6.324],[134.31,-6.305],[134.303,-6.291],[134.29,-6.292],[134.267,-6.261],[134.251,-6.259],[134.226,-6.223],[134.213,-6.219],[134.203,-6.226],[134.194,-6.215],[134.167,-6.215],[134.134,-6.181],[134.135,-6.168],[134.109,-6.16],[134.096,-6.173],[134.122,-6.238],[134.118,-6.244],[134.136,-6.309],[134.128,-6.363],[134.115,-6.386],[134.116,-6.418],[134.138,-6.463],[134.163,-6.459],[134.196,-6.425],[134.204,-6.433],[134.211,-6.426],[134.204,-6.443],[134.185,-6.45],[134.184,-6.459],[134.19,-6.463],[134.217,-6.444],[134.216,-6.455],[134.2,-6.457],[134.196,-6.466],[134.223,-6.493],[134.221,-6.509],[134.233,-6.51],[134.218,-6.547],[134.236,-6.571],[134.236,-6.611],[134.251,-6.616],[134.26,-6.638],[134.281,-6.64],[134.283,-6.656],[134.294,-6.664],[134.279,-6.659],[134.278,-6.641],[134.262,-6.644],[134.248,-6.619],[134.234,-6.615],[134.228,-6.566],[134.207,-6.54],[134.213,-6.513],[134.201,-6.486],[134.183,-6.495],[134.178,-6.507],[134.151,-6.532],[134.179,-6.503],[134.182,-6.486],[134.169,-6.479],[134.151,-6.49],[134.135,-6.482]]],[[[134.213,-6.532],[134.219,-6.542],[134.227,-6.517],[134.213,-6.532]]],[[[134.316,-6.309],[134.299,-6.323],[134.316,-6.349],[134.316,-6.362],[134.323,-6.362],[134.329,-6.355],[134.316,-6.309]]],[[[134.323,-6.295],[134.32,-6.315],[134.335,-6.325],[134.332,-6.306],[134.323,-6.295]]],[[[134.283,-6.144],[134.287,-6.127],[134.271,-6.12],[134.267,-6.135],[134.283,-6.144]]],[[[134.314,-5.831],[134.305,-5.83],[134.303,-5.832],[134.304,-5.845],[134.313,-5.844],[134.305,-5.831],[134.314,-5.831]]],[[[134.196,-5.751],[134.192,-5.827],[134.209,-5.835],[134.223,-5.825],[134.247,-5.826],[134.252,-5.816],[134.24,-5.812],[134.252,-5.781],[134.246,-5.77],[134.242,-5.78],[134.242,-5.766],[134.233,-5.765],[134.239,-5.757],[134.223,-5.76],[134.196,-5.751]]],[[[134.288,-5.626],[134.339,-5.6],[134.347,-5.574],[134.323,-5.561],[134.305,-5.563],[134.301,-5.572],[134.306,-5.57],[134.317,-5.572],[134.31,-5.571],[134.304,-5.573],[134.3,-5.572],[134.283,-5.607],[134.256,-5.616],[134.248,-5.612],[134.244,-5.625],[134.278,-5.646],[134.288,-5.626]]],[[[134.254,-5.554],[134.286,-5.522],[134.281,-5.497],[134.272,-5.484],[134.255,-5.487],[134.254,-5.554]]],[[[134.361,-6.385],[134.349,-6.382],[134.355,-6.395],[134.361,-6.385]]],[[[134.342,-6.359],[134.331,-6.356],[134.334,-6.368],[134.342,-6.359]]],[[[134.227,-6.202],[134.244,-6.237],[134.276,-6.263],[134.283,-6.28],[134.295,-6.286],[134.315,-6.276],[134.326,-6.287],[134.336,-6.301],[134.343,-6.343],[134.357,-6.335],[134.369,-6.338],[134.362,-6.351],[134.368,-6.397],[134.406,-6.396],[134.423,-6.409],[134.438,-6.438],[134.456,-6.426],[134.469,-6.428],[134.467,-6.445],[134.486,-6.448],[134.493,-6.457],[134.481,-6.489],[134.506,-6.497],[134.517,-6.532],[134.537,-6.528],[134.547,-6.537],[134.575,-6.474],[134.6,-6.459],[134.611,-6.427],[134.601,-6.417],[134.6,-6.389],[134.546,-6.364],[134.541,-6.352],[134.586,-6.351],[134.623,-6.374],[134.643,-6.353],[134.684,-6.343],[134.728,-6.308],[134.765,-6.206],[134.759,-6.19],[134.769,-6.166],[134.76,-6.156],[134.719,-6.173],[134.713,-6.169],[134.762,-6.14],[134.782,-6.091],[134.735,-6.029],[134.652,-5.962],[134.661,-5.952],[134.658,-5.944],[134.636,-5.937],[134.597,-5.944],[134.535,-5.919],[134.5,-5.954],[134.488,-5.961],[134.469,-5.961],[134.466,-5.978],[134.44,-6.014],[134.43,-6.021],[134.419,-6.025],[134.407,-6.025],[134.382,-6.019],[134.353,-6.043],[134.344,-6.032],[134.318,-6.024],[134.279,-6.048],[134.291,-6.072],[134.271,-6.089],[134.271,-6.111],[134.287,-6.125],[134.289,-6.135],[134.283,-6.146],[134.313,-6.172],[134.321,-6.2],[134.311,-6.194],[134.301,-6.168],[134.285,-6.16],[134.274,-6.167],[134.269,-6.147],[134.245,-6.142],[134.232,-6.126],[134.244,-6.095],[134.279,-6.064],[134.277,-6.057],[134.245,-6.075],[134.229,-6.055],[134.227,-6.016],[134.197,-6.019],[134.193,-6.038],[134.177,-6.034],[134.162,-6.04],[134.155,-6.027],[134.157,-6.006],[134.144,-6.01],[134.124,-6.038],[134.116,-6.108],[134.151,-6.152],[134.149,-6.137],[134.187,-6.121],[134.199,-6.127],[134.202,-6.145],[134.171,-6.165],[134.163,-6.182],[134.178,-6.2],[134.214,-6.192],[134.227,-6.202]]],[[[134.461,-5.459],[134.491,-5.439],[134.489,-5.434],[134.494,-5.422],[134.466,-5.442],[134.461,-5.459]]],[[[134.533,-7.075],[134.524,-7.066],[134.505,-7.069],[134.511,-7.069],[134.514,-7.073],[134.511,-7.076],[134.489,-7.064],[134.472,-7.088],[134.523,-7.1],[134.533,-7.075]]],[[[134.511,-6.93],[134.492,-6.937],[134.491,-6.954],[134.53,-6.948],[134.518,-6.945],[134.511,-6.93]]],[[[134.543,-6.905],[134.529,-6.916],[134.522,-6.908],[134.52,-6.917],[134.529,-6.92],[134.548,-6.912],[134.543,-6.905]]],[[[134.552,-6.751],[134.535,-6.747],[134.531,-6.76],[134.529,-6.762],[134.529,-6.762],[134.529,-6.762],[134.529,-6.762],[134.529,-6.762],[134.529,-6.762],[134.528,-6.762],[134.527,-6.762],[134.527,-6.762],[134.526,-6.762],[134.526,-6.763],[134.522,-6.762],[134.513,-6.769],[134.51,-6.781],[134.535,-6.778],[134.552,-6.751]]],[[[134.53,-6.752],[134.521,-6.752],[134.519,-6.754],[134.519,-6.756],[134.517,-6.759],[134.517,-6.76],[134.517,-6.76],[134.517,-6.76],[134.517,-6.761],[134.529,-6.762],[134.53,-6.752]]],[[[134.479,-6.76],[134.52,-6.751],[134.53,-6.749],[134.528,-6.737],[134.518,-6.734],[134.513,-6.72],[134.504,-6.719],[134.506,-6.723],[134.506,-6.723],[134.506,-6.723],[134.506,-6.724],[134.506,-6.724],[134.506,-6.724],[134.506,-6.725],[134.506,-6.725],[134.506,-6.726],[134.506,-6.726],[134.506,-6.726],[134.506,-6.727],[134.504,-6.719],[134.497,-6.72],[134.479,-6.76]]],[[[134.482,-6.71],[134.495,-6.693],[134.493,-6.682],[134.474,-6.694],[134.482,-6.71]]],[[[134.5,-6.711],[134.518,-6.71],[134.528,-6.693],[134.514,-6.663],[134.506,-6.701],[134.5,-6.711]]],[[[134.503,-6.689],[134.513,-6.663],[134.504,-6.668],[134.503,-6.689]]],[[[134.601,-6.599],[134.583,-6.609],[134.589,-6.63],[134.603,-6.62],[134.607,-6.604],[134.601,-6.599]]],[[[134.592,-6.522],[134.576,-6.509],[134.56,-6.543],[134.576,-6.547],[134.592,-6.522]]],[[[134.572,-6.488],[134.552,-6.534],[134.564,-6.531],[134.584,-6.476],[134.572,-6.488]]],[[[134.213,-5.721],[134.259,-5.759],[134.271,-5.753],[134.285,-5.757],[134.285,-5.751],[134.293,-5.758],[134.313,-5.753],[134.308,-5.757],[134.306,-5.763],[134.307,-5.766],[134.325,-5.759],[134.324,-5.765],[134.338,-5.771],[134.325,-5.784],[134.334,-5.784],[134.326,-5.789],[134.333,-5.798],[134.367,-5.769],[134.394,-5.789],[134.415,-5.785],[134.369,-5.803],[134.382,-5.804],[134.374,-5.809],[134.38,-5.814],[134.369,-5.816],[134.381,-5.823],[134.36,-5.82],[134.36,-5.831],[134.373,-5.832],[134.372,-5.849],[134.348,-5.847],[134.331,-5.86],[134.339,-5.868],[134.337,-5.883],[134.311,-5.896],[134.318,-5.906],[134.298,-5.898],[134.299,-5.929],[134.317,-5.929],[134.316,-5.938],[134.333,-5.942],[134.321,-5.985],[134.303,-6.011],[134.301,-6.018],[134.303,-6.02],[134.325,-6.017],[134.357,-6.033],[134.379,-6.015],[134.413,-6.023],[134.43,-6.019],[134.464,-5.978],[134.467,-5.958],[134.487,-5.959],[134.504,-5.949],[134.535,-5.916],[134.598,-5.941],[134.642,-5.928],[134.656,-5.935],[134.66,-5.93],[134.711,-5.977],[134.733,-5.98],[134.745,-5.967],[134.732,-5.95],[134.733,-5.942],[134.748,-5.939],[134.723,-5.929],[134.725,-5.921],[134.71,-5.911],[134.71,-5.892],[134.73,-5.887],[134.726,-5.894],[134.738,-5.907],[134.739,-5.896],[134.761,-5.897],[134.773,-5.888],[134.759,-5.868],[134.769,-5.852],[134.706,-5.833],[134.705,-5.826],[134.721,-5.806],[134.734,-5.808],[134.734,-5.802],[134.747,-5.787],[134.741,-5.74],[134.732,-5.738],[134.725,-5.749],[134.71,-5.743],[134.736,-5.708],[134.729,-5.701],[134.732,-5.673],[134.767,-5.669],[134.757,-5.654],[134.764,-5.647],[134.744,-5.616],[134.742,-5.634],[134.729,-5.613],[134.717,-5.612],[134.716,-5.6],[134.69,-5.597],[134.686,-5.582],[134.67,-5.587],[134.671,-5.592],[134.662,-5.599],[134.664,-5.589],[134.652,-5.576],[134.642,-5.579],[134.644,-5.587],[134.64,-5.591],[134.64,-5.584],[134.622,-5.586],[134.607,-5.57],[134.6,-5.569],[134.599,-5.576],[134.594,-5.575],[134.593,-5.569],[134.584,-5.574],[134.571,-5.571],[134.57,-5.563],[134.564,-5.568],[134.552,-5.561],[134.548,-5.569],[134.53,-5.572],[134.522,-5.557],[134.512,-5.565],[134.504,-5.555],[134.505,-5.532],[134.492,-5.536],[134.482,-5.564],[134.469,-5.564],[134.456,-5.544],[134.46,-5.532],[134.458,-5.528],[134.448,-5.543],[134.447,-5.578],[134.418,-5.596],[134.433,-5.599],[134.416,-5.64],[134.355,-5.686],[134.352,-5.699],[134.366,-5.709],[134.358,-5.72],[134.333,-5.727],[134.315,-5.704],[134.29,-5.692],[134.3,-5.689],[134.295,-5.684],[134.269,-5.683],[134.25,-5.662],[134.22,-5.698],[134.213,-5.721]]],[[[134.484,-5.532],[134.486,-5.526],[134.484,-5.516],[134.473,-5.526],[134.484,-5.532]]],[[[134.512,-5.519],[134.502,-5.509],[134.495,-5.513],[134.498,-5.524],[134.512,-5.519]]],[[[134.522,-5.511],[134.506,-5.547],[134.514,-5.562],[134.523,-5.555],[134.531,-5.569],[134.543,-5.568],[134.553,-5.557],[134.574,-5.561],[134.572,-5.57],[134.593,-5.567],[134.596,-5.573],[134.6,-5.565],[134.609,-5.566],[134.625,-5.582],[134.642,-5.571],[134.649,-5.574],[134.65,-5.565],[134.66,-5.571],[134.666,-5.556],[134.665,-5.563],[134.671,-5.56],[134.664,-5.566],[134.682,-5.572],[134.69,-5.558],[134.674,-5.537],[134.7,-5.534],[134.701,-5.536],[134.706,-5.516],[134.686,-5.51],[134.666,-5.481],[134.661,-5.497],[134.652,-5.496],[134.653,-5.475],[134.643,-5.473],[134.652,-5.466],[134.649,-5.442],[134.624,-5.425],[134.609,-5.422],[134.613,-5.43],[134.605,-5.45],[134.607,-5.427],[134.591,-5.423],[134.589,-5.434],[134.594,-5.437],[134.593,-5.44],[134.592,-5.44],[134.588,-5.434],[134.587,-5.417],[134.572,-5.418],[134.564,-5.431],[134.578,-5.44],[134.556,-5.434],[134.559,-5.448],[134.531,-5.426],[134.501,-5.419],[134.491,-5.435],[134.503,-5.451],[134.502,-5.472],[134.49,-5.483],[134.5,-5.489],[134.519,-5.48],[134.527,-5.487],[134.507,-5.49],[134.502,-5.495],[134.503,-5.498],[134.502,-5.5],[134.5,-5.501],[134.504,-5.509],[134.522,-5.511]]],[[[134.49,-5.505],[134.504,-5.49],[134.489,-5.487],[134.49,-5.505]]],[[[134.593,-5.405],[134.587,-5.394],[134.578,-5.401],[134.593,-5.405]]],[[[134.595,-5.401],[134.611,-5.408],[134.621,-5.397],[134.606,-5.39],[134.613,-5.388],[134.609,-5.381],[134.593,-5.393],[134.6,-5.396],[134.595,-5.401]]],[[[134.571,-5.396],[134.596,-5.366],[134.597,-5.372],[134.605,-5.369],[134.6,-5.357],[134.579,-5.361],[134.571,-5.375],[134.579,-5.38],[134.57,-5.378],[134.562,-5.392],[134.571,-5.396]]],[[[134.595,-5.335],[134.572,-5.326],[134.559,-5.329],[134.547,-5.342],[134.551,-5.354],[134.54,-5.349],[134.526,-5.355],[134.529,-5.364],[134.508,-5.368],[134.503,-5.387],[134.542,-5.41],[134.549,-5.398],[134.557,-5.399],[134.557,-5.386],[134.58,-5.353],[134.603,-5.351],[134.595,-5.335]]],[[[134.525,-5.33],[134.513,-5.336],[134.511,-5.346],[134.528,-5.331],[134.541,-5.339],[134.534,-5.331],[134.525,-5.33]]],[[[134.679,-7.004],[134.67,-7.019],[134.682,-7.026],[134.685,-7.024],[134.686,-7.021],[134.687,-7.021],[134.687,-7.02],[134.688,-7.019],[134.679,-7.004]]],[[[134.667,-6.843],[134.645,-6.868],[134.634,-6.855],[134.634,-6.869],[134.623,-6.878],[134.605,-6.885],[134.591,-6.875],[134.586,-6.885],[134.604,-6.905],[134.661,-6.859],[134.684,-6.856],[134.681,-6.847],[134.667,-6.843]]],[[[134.758,-6.847],[134.751,-6.873],[134.72,-6.866],[134.703,-6.873],[134.699,-6.864],[134.686,-6.861],[134.7,-6.874],[134.746,-6.876],[134.75,-6.875],[134.759,-6.867],[134.758,-6.847]]],[[[134.677,-6.663],[134.654,-6.7],[134.625,-6.71],[134.636,-6.729],[134.623,-6.757],[134.64,-6.758],[134.654,-6.78],[134.666,-6.777],[134.671,-6.784],[134.687,-6.776],[134.696,-6.745],[134.713,-6.732],[134.705,-6.723],[134.704,-6.71],[134.709,-6.702],[134.708,-6.724],[134.734,-6.704],[134.741,-6.681],[134.734,-6.671],[134.743,-6.667],[134.737,-6.653],[134.762,-6.622],[134.75,-6.615],[134.754,-6.609],[134.73,-6.597],[134.724,-6.583],[134.703,-6.579],[134.694,-6.587],[134.697,-6.59],[134.697,-6.593],[134.698,-6.59],[134.698,-6.59],[134.698,-6.59],[134.699,-6.59],[134.7,-6.591],[134.698,-6.594],[134.686,-6.594],[134.681,-6.624],[134.672,-6.63],[134.677,-6.663]]],[[[134.731,-6.55],[134.717,-6.547],[134.712,-6.566],[134.731,-6.569],[134.731,-6.55]]],[[[134.694,-6.444],[134.641,-6.476],[134.64,-6.497],[134.654,-6.497],[134.664,-6.51],[134.667,-6.551],[134.679,-6.562],[134.705,-6.558],[134.723,-6.541],[134.73,-6.544],[134.733,-6.554],[134.744,-6.553],[134.764,-6.53],[134.745,-6.499],[134.746,-6.484],[134.694,-6.444]]],[[[134.633,-6.461],[134.586,-6.481],[134.579,-6.508],[134.59,-6.518],[134.613,-6.501],[134.626,-6.502],[134.643,-6.456],[134.627,-6.45],[134.623,-6.46],[134.624,-6.46],[134.624,-6.46],[134.625,-6.46],[134.626,-6.46],[134.627,-6.46],[134.629,-6.46],[134.63,-6.46],[134.63,-6.46],[134.631,-6.459],[134.631,-6.459],[134.631,-6.459],[134.632,-6.459],[134.633,-6.459],[134.633,-6.459],[134.633,-6.459],[134.633,-6.459],[134.633,-6.46],[134.633,-6.46],[134.633,-6.461]]],[[[134.691,-5.559],[134.688,-5.571],[134.696,-5.572],[134.7,-5.565],[134.691,-5.559]]],[[[134.713,-5.548],[134.701,-5.56],[134.7,-5.574],[134.711,-5.571],[134.713,-5.548]]],[[[134.692,-5.537],[134.69,-5.545],[134.699,-5.548],[134.701,-5.538],[134.692,-5.537]]],[[[134.683,-5.464],[134.675,-5.464],[134.674,-5.478],[134.68,-5.477],[134.683,-5.464]]],[[[134.656,-5.456],[134.668,-5.475],[134.673,-5.463],[134.654,-5.443],[134.666,-5.462],[134.656,-5.456]]],[[[134.631,-5.41],[134.63,-5.399],[134.626,-5.396],[134.618,-5.409],[134.631,-5.41]]],[[[134.65,-5.396],[134.672,-5.407],[134.677,-5.406],[134.656,-5.387],[134.65,-5.396]]],[[[134.755,-6.497],[134.767,-6.498],[134.772,-6.486],[134.76,-6.49],[134.755,-6.497]]],[[[134.765,-6.421],[134.763,-6.431],[134.769,-6.432],[134.775,-6.423],[134.765,-6.421]]],[[[134.755,-6.359],[134.732,-6.383],[134.729,-6.425],[134.742,-6.434],[134.755,-6.417],[134.755,-6.359]]],[[[134.748,-5.808],[134.761,-5.797],[134.747,-5.788],[134.743,-5.801],[134.748,-5.808]]],[[[134.798,-6.633],[134.772,-6.601],[134.768,-6.61],[134.767,-6.604],[134.755,-6.608],[134.764,-6.625],[134.763,-6.634],[134.784,-6.642],[134.798,-6.633]]],[[[134.811,-6.562],[134.85,-6.497],[134.833,-6.482],[134.819,-6.483],[134.798,-6.511],[134.775,-6.515],[134.777,-6.545],[134.801,-6.55],[134.805,-6.537],[134.811,-6.562]]],[[[134.786,-6.402],[134.774,-6.377],[134.78,-6.368],[134.77,-6.367],[134.765,-6.395],[134.773,-6.418],[134.786,-6.402]]],[[[134.845,-6.477],[134.87,-6.394],[134.901,-6.353],[134.909,-6.321],[134.885,-6.285],[134.879,-6.287],[134.88,-6.315],[134.866,-6.325],[134.879,-6.303],[134.877,-6.291],[134.855,-6.282],[134.847,-6.305],[134.847,-6.335],[134.846,-6.343],[134.842,-6.347],[134.851,-6.356],[134.84,-6.35],[134.842,-6.327],[134.796,-6.39],[134.8,-6.407],[134.819,-6.401],[134.806,-6.411],[134.805,-6.428],[134.826,-6.434],[134.806,-6.432],[134.801,-6.447],[134.808,-6.46],[134.845,-6.477]]],[[[134.832,-6.312],[134.824,-6.296],[134.79,-6.33],[134.791,-6.361],[134.808,-6.351],[134.832,-6.312]]],[[[134.86,-6.219],[134.868,-6.216],[134.875,-6.196],[134.864,-6.185],[134.861,-6.203],[134.851,-6.209],[134.86,-6.219]]],[[[134.888,-6.139],[134.876,-6.146],[134.875,-6.162],[134.887,-6.158],[134.888,-6.139]]],[[[134.864,-5.962],[134.865,-5.954],[134.855,-5.951],[134.854,-5.962],[134.864,-5.962]]],[[[134.791,-5.901],[134.776,-5.897],[134.775,-5.91],[134.791,-5.901]]],[[[134.79,-5.875],[134.783,-5.889],[134.791,-5.894],[134.805,-5.876],[134.79,-5.875]]],[[[134.774,-5.809],[134.766,-5.817],[134.769,-5.825],[134.8,-5.819],[134.8,-5.819],[134.8,-5.818],[134.8,-5.818],[134.8,-5.818],[134.8,-5.817],[134.8,-5.817],[134.8,-5.817],[134.8,-5.816],[134.8,-5.816],[134.8,-5.815],[134.8,-5.814],[134.801,-5.814],[134.8,-5.81],[134.774,-5.809]]],[[[134.8,-5.815],[134.814,-5.82],[134.809,-5.807],[134.8,-5.815]]],[[[134.797,-5.793],[134.784,-5.775],[134.778,-5.786],[134.797,-5.793]]],[[[134.803,-5.751],[134.814,-5.736],[134.793,-5.728],[134.783,-5.758],[134.803,-5.751]]]]}},{"id":"8108","type":"Feature","properties":{"nama":"KABUPATEN MALUKU BARAT DAYA"},"geometry":{"type":"MultiPolygon","coordinates":[[[[127.162,-8.106],[127.233,-8.1],[127.216,-8.075],[127.216,-8.035],[127.199,-8.013],[127.161,-8.016],[127.136,-8.038],[127.149,-8.082],[127.143,-8.097],[127.162,-8.106]]],[[[125.735,-8.059],[125.764,-8.016],[125.762,-7.998],[125.732,-7.967],[125.722,-7.981],[125.729,-7.987],[125.735,-8.059]]],[[[125.789,-8.008],[125.808,-8.013],[125.816,-7.995],[125.87,-7.977],[125.887,-7.952],[125.926,-7.942],[125.948,-7.915],[125.982,-7.92],[125.99,-7.909],[126.063,-7.888],[126.106,-7.895],[126.132,-7.891],[126.163,-7.909],[126.173,-7.925],[126.229,-7.928],[126.331,-7.914],[126.369,-7.935],[126.423,-7.931],[126.467,-7.975],[126.499,-7.929],[126.504,-7.915],[126.498,-7.907],[126.515,-7.883],[126.521,-7.858],[126.538,-7.851],[126.55,-7.822],[126.594,-7.807],[126.603,-7.792],[126.622,-7.783],[126.659,-7.778],[126.696,-7.75],[126.805,-7.742],[126.82,-7.755],[126.843,-7.733],[126.824,-7.689],[126.808,-7.678],[126.816,-7.662],[126.811,-7.656],[126.787,-7.662],[126.758,-7.656],[126.722,-7.667],[126.713,-7.645],[126.695,-7.64],[126.688,-7.623],[126.67,-7.622],[126.637,-7.603],[126.631,-7.584],[126.637,-7.563],[126.627,-7.557],[126.595,-7.573],[126.535,-7.572],[126.5,-7.589],[126.471,-7.589],[126.438,-7.633],[126.42,-7.635],[126.406,-7.624],[126.398,-7.637],[126.38,-7.637],[126.368,-7.667],[126.335,-7.681],[126.324,-7.695],[126.236,-7.688],[126.185,-7.728],[126.143,-7.725],[126.091,-7.703],[126.066,-7.706],[126.049,-7.693],[126.026,-7.698],[126.016,-7.675],[125.999,-7.681],[125.988,-7.659],[125.972,-7.653],[125.96,-7.663],[125.947,-7.662],[125.933,-7.681],[125.935,-7.691],[125.911,-7.735],[125.916,-7.744],[125.862,-7.768],[125.858,-7.782],[125.876,-7.797],[125.871,-7.815],[125.828,-7.845],[125.827,-7.855],[125.816,-7.852],[125.806,-7.862],[125.827,-7.916],[125.819,-7.958],[125.791,-7.995],[125.789,-8.008]]],[[[125.913,-7.678],[125.931,-7.672],[125.928,-7.66],[125.909,-7.668],[125.913,-7.678]]],[[[127.605,-7.592],[127.586,-7.55],[127.582,-7.56],[127.596,-7.587],[127.599,-7.621],[127.615,-7.608],[127.618,-7.594],[127.605,-7.592]]],[[[127.365,-7.654],[127.398,-7.639],[127.409,-7.6],[127.44,-7.602],[127.471,-7.589],[127.489,-7.552],[127.483,-7.539],[127.487,-7.521],[127.473,-7.514],[127.459,-7.528],[127.445,-7.525],[127.43,-7.511],[127.412,-7.511],[127.408,-7.497],[127.395,-7.508],[127.401,-7.511],[127.382,-7.51],[127.383,-7.501],[127.391,-7.5],[127.387,-7.492],[127.365,-7.501],[127.355,-7.53],[127.361,-7.573],[127.371,-7.586],[127.342,-7.594],[127.324,-7.612],[127.323,-7.626],[127.337,-7.648],[127.365,-7.654]]],[[[127.536,-7.533],[127.545,-7.54],[127.544,-7.526],[127.536,-7.533]]],[[[127.275,-7.518],[127.295,-7.53],[127.3,-7.515],[127.29,-7.511],[127.275,-7.518]]],[[[128.498,-8.32],[128.495,-8.335],[128.509,-8.344],[128.5,-8.331],[128.498,-8.32]]],[[[128.093,-8.206],[128.095,-8.22],[128.079,-8.249],[128.086,-8.263],[128.149,-8.278],[128.203,-8.279],[128.235,-8.27],[128.225,-8.216],[128.213,-8.205],[128.186,-8.202],[128.129,-8.217],[128.093,-8.206]]],[[[127.601,-8.215],[127.63,-8.224],[127.633,-8.238],[127.663,-8.238],[127.717,-8.212],[127.726,-8.218],[127.742,-8.214],[127.755,-8.19],[127.746,-8.176],[127.683,-8.155],[127.648,-8.174],[127.601,-8.215]]],[[[127.763,-8.11],[127.764,-8.121],[127.784,-8.134],[127.788,-8.174],[127.806,-8.194],[127.878,-8.218],[127.944,-8.22],[127.958,-8.232],[127.96,-8.247],[128.004,-8.258],[128.045,-8.26],[128.053,-8.227],[128.07,-8.216],[128.075,-8.194],[128.127,-8.163],[128.126,-8.153],[128.091,-8.137],[128.04,-8.148],[128.002,-8.14],[127.952,-8.147],[127.936,-8.142],[127.927,-8.128],[127.903,-8.13],[127.877,-8.117],[127.851,-8.118],[127.812,-8.104],[127.763,-8.11]]],[[[128.711,-8.191],[128.72,-8.179],[128.7,-8.165],[128.682,-8.166],[128.693,-8.186],[128.711,-8.191]]],[[[128.559,-7.383],[128.569,-7.362],[128.563,-7.357],[128.558,-7.364],[128.555,-7.354],[128.549,-7.37],[128.559,-7.383]]],[[[128.56,-7.316],[128.573,-7.292],[128.564,-7.281],[128.554,-7.3],[128.56,-7.316]]],[[[128.656,-7.097],[128.63,-7.07],[128.612,-7.062],[128.594,-7.066],[128.572,-7.09],[128.541,-7.107],[128.524,-7.142],[128.543,-7.163],[128.559,-7.16],[128.623,-7.213],[128.65,-7.217],[128.66,-7.194],[128.689,-7.166],[128.673,-7.166],[128.655,-7.138],[128.667,-7.144],[128.685,-7.139],[128.702,-7.116],[128.699,-7.105],[128.679,-7.095],[128.656,-7.097]]],[[[128.955,-8.227],[128.978,-8.246],[129.017,-8.261],[129.031,-8.243],[129.033,-8.224],[128.964,-8.185],[128.92,-8.189],[128.871,-8.182],[128.826,-8.198],[128.871,-8.232],[128.905,-8.242],[128.938,-8.246],[128.931,-8.23],[128.933,-8.226],[128.955,-8.227]]],[[[128.757,-8.162],[128.781,-8.172],[128.785,-8.201],[128.8,-8.198],[128.789,-8.163],[128.757,-8.162]]],[[[129.813,-8.207],[129.827,-8.213],[129.84,-8.207],[129.878,-8.15],[129.916,-8.131],[129.924,-8.092],[129.897,-8.116],[129.875,-8.121],[129.847,-8.143],[129.813,-8.207]]],[[[129.857,-7.844],[129.819,-7.816],[129.77,-7.814],[129.733,-7.796],[129.666,-7.787],[129.618,-7.803],[129.596,-7.823],[129.589,-7.838],[129.594,-7.869],[129.582,-7.899],[129.604,-7.913],[129.605,-7.929],[129.631,-7.96],[129.653,-7.971],[129.686,-8.023],[129.708,-8.041],[129.755,-8.055],[129.793,-8.043],[129.822,-7.971],[129.862,-7.925],[129.867,-7.902],[129.846,-7.89],[129.841,-7.859],[129.857,-7.844]]],[[[129.516,-7.929],[129.525,-7.944],[129.544,-7.951],[129.57,-7.91],[129.565,-7.894],[129.55,-7.887],[129.548,-7.865],[129.532,-7.859],[129.52,-7.843],[129.511,-7.849],[129.526,-7.869],[129.517,-7.882],[129.516,-7.929]]],[[[130.041,-7.754],[130.03,-7.768],[130.059,-7.767],[130.078,-7.789],[130.089,-7.785],[130.093,-7.762],[130.072,-7.753],[130.041,-7.754]]],[[[130.005,-7.697],[129.988,-7.715],[129.994,-7.731],[130.003,-7.733],[130.0,-7.742],[130.026,-7.745],[130.005,-7.697]]],[[[129.701,-7.556],[129.666,-7.528],[129.663,-7.556],[129.686,-7.564],[129.691,-7.573],[129.717,-7.572],[129.725,-7.551],[129.701,-7.556]]]]}},{"id":"8109","type":"Feature","properties":{"nama":"KABUPATEN BURU SELATAN"},"geometry":{"type":"MultiPolygon","coordinates":[[[[126.007,-3.299],[126.003,-3.29],[126.009,-3.287],[125.997,-3.286],[125.995,-3.299],[126.007,-3.299]]],[[[125.996,-3.251],[126.007,-3.239],[126.007,-3.216],[125.998,-3.226],[125.996,-3.251]]],[[[127.165,-3.824],[127.142,-3.848],[127.163,-3.888],[127.206,-3.89],[127.213,-3.905],[127.224,-3.905],[127.227,-3.882],[127.244,-3.875],[127.237,-3.871],[127.243,-3.863],[127.237,-3.839],[127.199,-3.816],[127.182,-3.826],[127.165,-3.824]]],[[[126.009,-3.311],[126.009,-3.324],[126.019,-3.335],[126.007,-3.359],[126.041,-3.399],[126.038,-3.422],[126.046,-3.442],[126.073,-3.477],[126.125,-3.501],[126.152,-3.526],[126.165,-3.553],[126.163,-3.582],[126.181,-3.613],[126.196,-3.623],[126.232,-3.618],[126.263,-3.639],[126.281,-3.664],[126.338,-3.681],[126.348,-3.702],[126.372,-3.704],[126.388,-3.719],[126.4,-3.709],[126.396,-3.72],[126.441,-3.743],[126.444,-3.751],[126.455,-3.747],[126.456,-3.758],[126.495,-3.772],[126.501,-3.785],[126.522,-3.781],[126.515,-3.795],[126.562,-3.792],[126.592,-3.811],[126.599,-3.808],[126.606,-3.82],[126.615,-3.817],[126.62,-3.828],[126.638,-3.822],[126.684,-3.861],[126.696,-3.862],[126.718,-3.846],[126.742,-3.857],[126.791,-3.815],[126.849,-3.789],[126.874,-3.784],[126.893,-3.791],[126.908,-3.778],[126.953,-3.772],[126.961,-3.754],[127.053,-3.688],[127.094,-3.683],[127.117,-3.665],[127.136,-3.661],[127.181,-3.675],[127.204,-3.672],[127.224,-3.659],[127.239,-3.632],[127.24,-3.615],[127.202,-3.592],[127.157,-3.519],[127.112,-3.482],[127.096,-3.499],[127.102,-3.513],[127.06,-3.541],[127.037,-3.579],[127.002,-3.598],[126.975,-3.602],[126.957,-3.64],[126.931,-3.634],[126.88,-3.651],[126.876,-3.635],[126.836,-3.602],[126.837,-3.592],[126.829,-3.591],[126.823,-3.577],[126.816,-3.59],[126.812,-3.58],[126.803,-3.584],[126.793,-3.574],[126.781,-3.572],[126.773,-3.581],[126.768,-3.576],[126.769,-3.592],[126.751,-3.586],[126.746,-3.61],[126.713,-3.593],[126.68,-3.534],[126.606,-3.491],[126.594,-3.458],[126.552,-3.448],[126.523,-3.459],[126.392,-3.414],[126.346,-3.413],[126.321,-3.394],[126.266,-3.394],[126.247,-3.384],[126.249,-3.368],[126.204,-3.327],[126.194,-3.301],[126.201,-3.287],[126.197,-3.278],[126.153,-3.262],[126.123,-3.266],[126.102,-3.247],[126.102,-3.178],[126.126,-3.152],[126.099,-3.112],[126.09,-3.112],[126.083,-3.128],[126.017,-3.174],[126.012,-3.195],[126.019,-3.241],[126.008,-3.245],[126.005,-3.262],[126.01,-3.289],[126.017,-3.293],[126.009,-3.297],[126.015,-3.312],[126.009,-3.311]]]]}},{"id":"8171","type":"Feature","properties":{"nama":"KOTA AMBON"},"geometry":{"type":"Polygon","coordinates":[[[128.028,-3.669],[128.044,-3.694],[128.077,-3.706],[128.085,-3.723],[128.1,-3.714],[128.106,-3.694],[128.117,-3.686],[128.158,-3.666],[128.202,-3.659],[128.194,-3.649],[128.197,-3.64],[128.232,-3.628],[128.244,-3.636],[128.225,-3.655],[128.199,-3.664],[128.171,-3.703],[128.155,-3.706],[128.13,-3.756],[128.105,-3.771],[128.092,-3.794],[128.153,-3.771],[128.16,-3.749],[128.184,-3.744],[128.197,-3.752],[128.241,-3.743],[128.264,-3.73],[128.274,-3.701],[128.296,-3.697],[128.301,-3.685],[128.293,-3.66],[128.257,-3.631],[128.261,-3.618],[128.271,-3.618],[128.27,-3.6],[128.239,-3.573],[128.191,-3.607],[128.195,-3.62],[128.189,-3.628],[128.162,-3.615],[128.123,-3.623],[128.062,-3.648],[128.045,-3.644],[128.028,-3.669]]]}},{"id":"8172","type":"Feature","properties":{"nama":"KOTA TUAL"},"geometry":{"type":"MultiPolygon","coordinates":[[[[132.196,-5.759],[132.199,-5.733],[132.195,-5.716],[132.173,-5.728],[132.17,-5.741],[132.183,-5.768],[132.196,-5.759]]],[[[132.002,-5.572],[131.996,-5.593],[132.008,-5.597],[132.002,-5.572]]],[[[131.989,-5.31],[131.962,-5.37],[131.97,-5.385],[132.002,-5.372],[132.022,-5.341],[132.022,-5.314],[132.012,-5.304],[131.995,-5.314],[131.989,-5.31]]],[[[132.021,-5.155],[132.011,-5.177],[132.023,-5.186],[132.025,-5.171],[132.021,-5.155]]],[[[132.269,-5.713],[132.276,-5.696],[132.274,-5.693],[132.265,-5.704],[132.269,-5.713]]],[[[132.292,-5.655],[132.32,-5.629],[132.303,-5.608],[132.307,-5.59],[132.284,-5.597],[132.278,-5.584],[132.26,-5.581],[132.252,-5.592],[132.261,-5.6],[132.284,-5.6],[132.292,-5.655]]],[[[132.329,-5.62],[132.337,-5.612],[132.321,-5.6],[132.314,-5.612],[132.329,-5.62]]],[[[132.342,-5.583],[132.379,-5.553],[132.378,-5.537],[132.36,-5.553],[132.348,-5.552],[132.344,-5.529],[132.33,-5.533],[132.321,-5.522],[132.31,-5.522],[132.304,-5.537],[132.326,-5.563],[132.316,-5.57],[132.325,-5.581],[132.342,-5.583]]],[[[132.757,-5.663],[132.776,-5.691],[132.79,-5.679],[132.799,-5.652],[132.802,-5.678],[132.793,-5.695],[132.802,-5.698],[132.815,-5.685],[132.799,-5.611],[132.817,-5.556],[132.815,-5.542],[132.793,-5.569],[132.802,-5.523],[132.783,-5.534],[132.752,-5.574],[132.741,-5.639],[132.749,-5.665],[132.748,-5.654],[132.761,-5.658],[132.76,-5.638],[132.767,-5.643],[132.769,-5.655],[132.757,-5.663]]],[[[132.7,-5.552],[132.734,-5.553],[132.749,-5.545],[132.75,-5.535],[132.737,-5.528],[132.707,-5.53],[132.701,-5.538],[132.689,-5.534],[132.687,-5.541],[132.7,-5.552]]],[[[132.733,-5.508],[132.744,-5.497],[132.74,-5.49],[132.731,-5.495],[132.733,-5.508]]],[[[132.753,-5.504],[132.76,-5.497],[132.764,-5.475],[132.745,-5.497],[132.753,-5.504]]],[[[132.701,-5.44],[132.7,-5.456],[132.713,-5.448],[132.701,-5.44]]],[[[132.725,-5.445],[132.722,-5.435],[132.717,-5.432],[132.719,-5.449],[132.725,-5.445]]]]}}]}